CCSDS_OMM_VERS = 2.0
CREATION_DATE  = 
ORIGINATOR     = 

OBJECT_NAME    = SL-14 R/B
OBJECT_ID      = 1991-042B
CENTER_NAME    = EARTH
REF_FRAME      = TEME
TIME_SYSTEM    = UTC
MEAN_ELEMENT_THEORY = SGP/SGP4

EPOCH          = 2026-02-21T11:36:51.602976
MEAN_MOTION    = 14.81811647
ECCENTRICITY   = .0015673
INCLINATION    = 82.4896
RA_OF_ASC_NODE = 235.3812
ARG_OF_PERICENTER = 296.7844
MEAN_ANOMALY   = 63.1766

EPHEMERIS_TYPE = 0
CLASSIFICATION_TYPE = U
NORAD_CAT_ID   = 21423
ELEMENT_SET_NO = 999
REV_AT_EPOCH   = 85067
BSTAR          = .46931074E-4
MEAN_MOTION_DOT = .394E-5
MEAN_MOTION_DDOT = 0

CCSDS_OMM_VERS = 2.0
CREATION_DATE  = 
ORIGINATOR     = 

OBJECT_NAME    = ERS-1
OBJECT_ID      = 1991-050A
CENTER_NAME    = EARTH
REF_FRAME      = TEME
TIME_SYSTEM    = UTC
MEAN_ELEMENT_THEORY = SGP/SGP4

EPOCH          = 2026-02-21T12:01:43.183200
MEAN_MOTION    = 14.39435260
ECCENTRICITY   = .00309512
INCLINATION    = 98.7892
RA_OF_ASC_NODE = 70.3286
ARG_OF_PERICENTER = 249.6296
MEAN_ANOMALY   = 110.1565

EPHEMERIS_TYPE = 0
CLASSIFICATION_TYPE = U
NORAD_CAT_ID   = 21574
ELEMENT_SET_NO = 999
REV_AT_EPOCH   = 81340
BSTAR          = .98554745E-4
MEAN_MOTION_DOT = .262E-5
MEAN_MOTION_DDOT = 0

CCSDS_OMM_VERS = 2.0
CREATION_DATE  = 
ORIGINATOR     = 

OBJECT_NAME    = ARIANE 40 R/B
OBJECT_ID      = 1991-050F
CENTER_NAME    = EARTH
REF_FRAME      = TEME
TIME_SYSTEM    = UTC
MEAN_ELEMENT_THEORY = SGP/SGP4

EPOCH          = 2026-02-21T14:10:32.062368
MEAN_MOTION    = 14.42880637
ECCENTRICITY   = .00042768
INCLINATION    = 98.2049
RA_OF_ASC_NODE = 105.4286
ARG_OF_PERICENTER = 116.4342
MEAN_ANOMALY   = 243.7288

EPHEMERIS_TYPE = 0
CLASSIFICATION_TYPE = U
NORAD_CAT_ID   = 21610
ELEMENT_SET_NO = 999
REV_AT_EPOCH   = 81667
BSTAR          = .81054594E-4
MEAN_MOTION_DOT = .229E-5
MEAN_MOTION_DDOT = 0

CCSDS_OMM_VERS = 2.0
CREATION_DATE  = 
ORIGINATOR     = 

OBJECT_NAME    = INTERCOSMOS 25
OBJECT_ID      = 1991-086A
CENTER_NAME    = EARTH
REF_FRAME      = TEME
TIME_SYSTEM    = UTC
MEAN_ELEMENT_THEORY = SGP/SGP4

EPOCH          = 2026-02-21T05:28:59.542752
MEAN_MOTION    = 12.11949312
ECCENTRICITY   = .1487023
INCLINATION    = 82.6078
RA_OF_ASC_NODE = 319.9559
ARG_OF_PERICENTER = 152.3917
MEAN_ANOMALY   = 216.4872

EPHEMERIS_TYPE = 0
CLASSIFICATION_TYPE = U
NORAD_CAT_ID   = 21819
ELEMENT_SET_NO = 999
REV_AT_EPOCH   = 49469
BSTAR          = .16354E-3
MEAN_MOTION_DOT = .863E-5
MEAN_MOTION_DDOT = 0

CCSDS_OMM_VERS = 2.0
CREATION_DATE  = 
ORIGINATOR     = 

OBJECT_NAME    = SL-8 R/B
OBJECT_ID      = 1992-008B
CENTER_NAME    = EARTH
REF_FRAME      = TEME
TIME_SYSTEM    = UTC
MEAN_ELEMENT_THEORY = SGP/SGP4

EPOCH          = 2026-02-21T15:23:14.547840
MEAN_MOTION    = 13.75970051
ECCENTRICITY   = .00346492
INCLINATION    = 82.9241
RA_OF_ASC_NODE = 279.7187
ARG_OF_PERICENTER = 177.3977
MEAN_ANOMALY   = 193.1986

EPHEMERIS_TYPE = 0
CLASSIFICATION_TYPE = U
NORAD_CAT_ID   = 21876
ELEMENT_SET_NO = 999
REV_AT_EPOCH   = 70721
BSTAR          = -.1285556E-5
MEAN_MOTION_DOT = .14E-6
MEAN_MOTION_DDOT = 0

CCSDS_OMM_VERS = 2.0
CREATION_DATE  = 
ORIGINATOR     = 

OBJECT_NAME    = SL-8 R/B
OBJECT_ID      = 1992-020B
CENTER_NAME    = EARTH
REF_FRAME      = TEME
TIME_SYSTEM    = UTC
MEAN_ELEMENT_THEORY = SGP/SGP4

EPOCH          = 2026-02-21T07:46:58.952352
MEAN_MOTION    = 13.75547318
ECCENTRICITY   = .00284426
INCLINATION    = 82.9342
RA_OF_ASC_NODE = 165.9083
ARG_OF_PERICENTER = 346.0083
MEAN_ANOMALY   = 67.2486

EPHEMERIS_TYPE = 0
CLASSIFICATION_TYPE = U
NORAD_CAT_ID   = 21938
ELEMENT_SET_NO = 999
REV_AT_EPOCH   = 69888
BSTAR          = .86192163E-4
MEAN_MOTION_DOT = .98E-6
MEAN_MOTION_DDOT = 0

CCSDS_OMM_VERS = 2.0
CREATION_DATE  = 
ORIGINATOR     = 

OBJECT_NAME    = USA 81
OBJECT_ID      = 1992-023A
CENTER_NAME    = EARTH
REF_FRAME      = TEME
TIME_SYSTEM    = UTC
MEAN_ELEMENT_THEORY = SGP/SGP4

EPOCH          = 2026-02-21T14:11:45.163680
MEAN_MOTION    = 14.32361880
ECCENTRICITY   = .00027439
INCLINATION    = 85.0113
RA_OF_ASC_NODE = 140.7252
ARG_OF_PERICENTER = 92.4647
MEAN_ANOMALY   = 267.6860

EPHEMERIS_TYPE = 0
CLASSIFICATION_TYPE = U
NORAD_CAT_ID   = 21949
ELEMENT_SET_NO = 999
REV_AT_EPOCH   = 9248
BSTAR          = .59125458E-4
MEAN_MOTION_DOT = .18E-5
MEAN_MOTION_DDOT = 0

CCSDS_OMM_VERS = 2.0
CREATION_DATE  = 
ORIGINATOR     = 

OBJECT_NAME    = COSMOS 2219
OBJECT_ID      = 1992-076A
CENTER_NAME    = EARTH
REF_FRAME      = TEME
TIME_SYSTEM    = UTC
MEAN_ELEMENT_THEORY = SGP/SGP4

EPOCH          = 2026-02-21T09:25:26.972256
MEAN_MOTION    = 14.14081091
ECCENTRICITY   = .00197505
INCLINATION    = 71.0590
RA_OF_ASC_NODE = 52.1365
ARG_OF_PERICENTER = 228.8868
MEAN_ANOMALY   = 131.0550

EPHEMERIS_TYPE = 0
CLASSIFICATION_TYPE = U
NORAD_CAT_ID   = 22219
ELEMENT_SET_NO = 999
REV_AT_EPOCH   = 71607
BSTAR          = .18522942E-3
MEAN_MOTION_DOT = .306E-5
MEAN_MOTION_DDOT = 0

CCSDS_OMM_VERS = 2.0
CREATION_DATE  = 
ORIGINATOR     = 

OBJECT_NAME    = SL-16 R/B
OBJECT_ID      = 1992-076B
CENTER_NAME    = EARTH
REF_FRAME      = TEME
TIME_SYSTEM    = UTC
MEAN_ELEMENT_THEORY = SGP/SGP4

EPOCH          = 2026-02-21T12:41:02.710176
MEAN_MOTION    = 14.16854905
ECCENTRICITY   = .00110703
INCLINATION    = 70.9978
RA_OF_ASC_NODE = 222.4157
ARG_OF_PERICENTER = 126.1939
MEAN_ANOMALY   = 291.2626

EPHEMERIS_TYPE = 0
CLASSIFICATION_TYPE = U
NORAD_CAT_ID   = 22220
ELEMENT_SET_NO = 999
REV_AT_EPOCH   = 71954
BSTAR          = .59371234E-4
MEAN_MOTION_DOT = .71E-6
MEAN_MOTION_DDOT = 0

CCSDS_OMM_VERS = 2.0
CREATION_DATE  = 
ORIGINATOR     = 

OBJECT_NAME    = COSMOS 2221
OBJECT_ID      = 1992-080A
CENTER_NAME    = EARTH
REF_FRAME      = TEME
TIME_SYSTEM    = UTC
MEAN_ELEMENT_THEORY = SGP/SGP4

EPOCH          = 2026-02-21T04:26:27.212352
MEAN_MOTION    = 14.96132448
ECCENTRICITY   = .001291
INCLINATION    = 82.5036
RA_OF_ASC_NODE = 294.8905
ARG_OF_PERICENTER = 246.7139
MEAN_ANOMALY   = 113.2725

EPHEMERIS_TYPE = 0
CLASSIFICATION_TYPE = U
NORAD_CAT_ID   = 22236
ELEMENT_SET_NO = 999
REV_AT_EPOCH   = 77832
BSTAR          = .14058E-3
MEAN_MOTION_DOT = .1609E-4
MEAN_MOTION_DDOT = 0

CCSDS_OMM_VERS = 2.0
CREATION_DATE  = 
ORIGINATOR     = 

OBJECT_NAME    = SL-16 R/B
OBJECT_ID      = 1992-093B
CENTER_NAME    = EARTH
REF_FRAME      = TEME
TIME_SYSTEM    = UTC
MEAN_ELEMENT_THEORY = SGP/SGP4

EPOCH          = 2026-02-21T09:57:10.935360
MEAN_MOTION    = 14.15447043
ECCENTRICITY   = .00057256
INCLINATION    = 71.0218
RA_OF_ASC_NODE = 38.4305
ARG_OF_PERICENTER = 311.1482
MEAN_ANOMALY   = 48.9146

EPHEMERIS_TYPE = 0
CLASSIFICATION_TYPE = U
NORAD_CAT_ID   = 22285
ELEMENT_SET_NO = 999
REV_AT_EPOCH   = 71085
BSTAR          = .16387548E-3
MEAN_MOTION_DOT = .272E-5
MEAN_MOTION_DDOT = 0

CCSDS_OMM_VERS = 2.0
CREATION_DATE  = 
ORIGINATOR     = 

OBJECT_NAME    = COSMOS 2228
OBJECT_ID      = 1992-094A
CENTER_NAME    = EARTH
REF_FRAME      = TEME
TIME_SYSTEM    = UTC
MEAN_ELEMENT_THEORY = SGP/SGP4

EPOCH          = 2026-02-21T14:43:05.279520
MEAN_MOTION    = 14.97105231
ECCENTRICITY   = .0018018
INCLINATION    = 82.5145
RA_OF_ASC_NODE = 252.7060
ARG_OF_PERICENTER = 0.7263
MEAN_ANOMALY   = 359.3982

EPHEMERIS_TYPE = 0
CLASSIFICATION_TYPE = U
NORAD_CAT_ID   = 22286
ELEMENT_SET_NO = 999
REV_AT_EPOCH   = 77365
BSTAR          = .14260133E-3
MEAN_MOTION_DOT = .1676E-4
MEAN_MOTION_DDOT = 0

