SL-14 R/B               
1 21423U 91042B   26052.48393059  .00000394  00000+0  46931-4 0  9996
2 21423  82.4896 235.3812 0015673 296.7844  63.1766 14.81811647850673
ERS-1                   
1 21574U 91050A   26052.50119425  .00000262  00000+0  98555-4 0  9991
2 21574  98.7892  70.3286 0030951 249.6296 110.1565 14.39435260813408
ARIANE 40 R/B           
1 21610U 91050F   26052.59064887  .00000229  00000+0  81055-4 0  9992
2 21610  98.2049 105.4286 0004276 116.4342 243.7288 14.42880637816675
INTERCOSMOS 25          
1 21819U 91086A   26052.22846693  .00000863  00000+0  16354-3 0  9998
2 21819  82.6078 319.9559 1487023 152.3917 216.4872 12.11949312494693
SL-8 R/B                
1 21876U 92008B   26052.64114060  .00000014  00000+0 -12856-5 0  9992
2 21876  82.9241 279.7187 0034649 177.3977 193.1986 13.75970051707212
SL-8 R/B                
1 21938U 92020B   26052.32429343  .00000098  00000+0  86192-4 0  9997
2 21938  82.9342 165.9083 0028442 346.0083  67.2486 13.75547318698885
USA 81                  
1 21949U 92023A   26052.59149495  .00000180  00000+0  59125-4 0  9996
2 21949  85.0113 140.7252 0002743  92.4647 267.6860 14.32361880 92488
COSMOS 2219             
1 22219U 92076A   26052.39267329  .00000306  00000+0  18523-3 0  9996
2 22219  71.0590  52.1365 0019750 228.8868 131.0550 14.14081091716071
SL-16 R/B               
1 22220U 92076B   26052.52850359  .00000071  00000+0  59371-4 0  9990
2 22220  70.9978 222.4157 0011070 126.1939 291.2626 14.16854905719540
COSMOS 2221             
1 22236U 92080A   26052.18503718  .00001609  00000+0  14058-3 0  9998
2 22236  82.5036 294.8905 0012910 246.7139 113.2725 14.96132448778323
SL-16 R/B               
1 22285U 92093B   26052.41470990  .00000272  00000+0  16388-3 0  9990
2 22285  71.0218  38.4305 0005725 311.1482  48.9146 14.15447043710858
COSMOS 2228             
1 22286U 92094A   26052.61325555  .00001676  00000+0  14260-3 0  9996
2 22286  82.5145 252.7060 0018018   0.7263 359.3982 14.97105231773655
